#dP2025  1  3  0  0  0.00000000      96 __u+U IGS20 FIT  IAC
## 2347 432000.00000000   900.00000000 60678 0.0000000000000
+  132   C01C02C03C04C05C06C07C08C09C10C11C12C13C14C16C19C20
+        C21C22C23C24C25C26C27C28C29C30C32C33C34C35C36C37C38
+        C39C40C41C42C43C44C45C59C60C62E02E03E04E05E06E07E08
+        E09E10E11E12E13E14E15E18E19E21E24E25E26E27E29E30E31
+        E33E34E36G01G02G03G04G05G06G07G08G09G10G11G12G13G14
+        G15G16G17G18G19G20G21G22G23G24G25G26G27G28G29G30G31
+        G32J02J03J04J07R01R02R03R04R05R06R07R08R09R10R11R12
+        R13R14R15R16R17R18R19R20R21R22R23R24R26  0  0  0  0
++        17 17 16 16 16  9 10 10  9  9  9  9  9  9  9  7  7
++         7  7  7  7  7  7  7  7  7  7  7  7  7  7  7  7  8
++         8  8  7  7  8  7  7 17 17 18  4  4  4  4  4  4  4
++         4  4  4  4  4  4  4  4  4  4  4  4  4  4  4  4  4
++         4  4  4  6  4  4  4  4  4  4  4  4  4  4  3  4  4
++         4  4  3  4  3  4  4  4  4  4  4  4  4  3  4  4  3
++         4  9  9 10 16  7  6  6  6  6 14  6  6  6 14  6  6
++        14  6  6  6  6  6  8  8  6  6 14  6  8  0  0  0  0
%c M  cc GPS ccc cccc cccc cccc cccc ccccc ccccc ccccc ccccc
%c cc cc ccc ccc cccc cccc cccc cccc ccccc ccccc ccccc ccccc
%f  0.0000000  0.000000000  0.00000000000  0.000000000000000
%f  0.0000000  0.000000000  0.00000000000  0.000000000000000
%i    0    0    0    0      0      0      0      0         0
%i    0    0    0    0      0      0      0      0         0
/* INFORMATION & ANALYSIS CENTER (IAC)            RAPID DATA
/* S/V CLOCKS ARE ALIGNED TO GNSS TIME                      
/* G:C1WC2W R:C1PC2P E:C1XC5X C:C2IC6I J:C1CC2S             
/* PCV:IGS20_2317 OL/AL:FES2004  NONE     YN ORB:CoN CLK:CoN
*  2025 01 03 22 45  0.00000000
PC01 -34245.646448  24576.118376    624.271583 999999.999999
PC02   4388.102652  41905.980665   2273.841521    691.283719
PC03 -14851.299616  39478.071085   1087.751585    773.136012
PC04 -39587.766155  14407.236474    153.154598   -558.892651
PC05  21949.264667  36024.384311   1598.607870    179.394786
PC06  -5466.057355  39432.085735  14434.870578    623.650094
PC07  -9426.627494  26317.639462 -31451.132090    147.587450
PC08 -19226.976495  30864.423810  21148.802598    225.357363
PC09  -1519.103500  42022.477215   6849.478757   -882.295941
PC10  -1130.607643  27885.375313 -31180.630458   -372.856871
PC11  19698.670345   8973.524115  17688.445195    320.412755
PC12  15919.409552  22893.441369   1245.898605   -223.459314
PC13 -13875.709033  31521.929958  24312.438825     71.117062
PC14  27456.452442   1025.169479   4725.262173   -617.827803
PC16  -6491.940417  38661.014113  16343.116343    -29.377850
PC19 -27060.421184   5140.607245   4579.865481   -964.828923
PC20 -24583.542774  -6025.724414 -11774.547609   -879.489725
PC21   6704.209136  14752.833269  22728.348416   -906.282388
PC22 -14245.113184  14103.734494  19418.733241    222.741953
PC23  13684.835543 -24164.379963  -2806.724902   -939.519531
PC24  13059.558405  10350.373822 -22407.370062    707.088314
PC25  18757.531786 -10342.924912 -17916.150414    606.865493
PC26    307.004769  24138.391241 -13995.602146   -400.633132
PC27 -10204.803779 -24756.964839   7822.348307    418.682023
PC28   3246.637203 -19683.621353  19521.171171    327.349247
PC29 -18123.746000    805.189328 -21204.642356    384.266637
PC30 -20203.078458 -17354.926281  -8296.972475     70.420018
PC32  -6731.231187 -14716.231677 -22722.300346   -865.891026
PC33  27036.476444  -5250.216660  -4449.621849   -947.183848
PC34  20609.369915  16034.834037   9863.748427    599.774390
PC35  -3248.037480  19357.938825 -19862.370149    163.453088
PC36 -18981.004804  10239.743404  17712.187225    247.126631
PC37    604.314401 -24352.125352  13639.150777   -900.752794
PC38 -24054.605464  32168.260051  12652.741933    200.834889
PC39  -8592.596113  35011.711462  22124.546654    -10.704194
PC40 -13189.378824  20135.091359 -34625.332191   -112.441509
PC41  15181.533770 -13887.154401 -18791.542582   -883.022081
PC42  23388.916778   7181.367202  13435.380688   -556.751469
PC43  18607.201351     59.033439  20796.115914     97.282185
PC44  11038.665049  24388.781813  -7948.800241    700.669573
PC45 -14068.165834  23848.761818   3344.454411   -202.034999
PC59 -32281.272112  27075.421663   1671.919931     -0.446968
PC60   7319.296116  41501.478511   1506.971497      0.706681
PC62 -39599.307399  14437.962902   -846.058393      0.254559
PE02  19733.221475 -19288.371258  10727.935960    187.334739
PE03  10387.456609 -13427.406557 -24254.856877   -164.267469
PE04  10604.139572  20919.782568  18062.062685   -123.433184
PE05  24812.212252   1803.097120 -16040.887726   4815.971896
PE06  19210.118000  20001.923388  10346.368531    -66.276156
PE07 -24696.807596 -16216.169217  -1867.105392   -161.704317
PE08  -9945.837133 -20784.684020 -18588.646497   -394.689106
PE09  24656.188870  16253.994360   1932.444031   -724.704572
PE10   8394.355808  24855.046114  13709.943350   -680.838809
PE11  13295.064781  16041.674313  21030.359470   -116.436146
PE12   2920.415604  28971.603145   5381.958289  -1370.197928
PE13 -13025.851624 -16585.015115 -20754.471065    -28.708916
PE14  -7200.774490 -21197.696800  17586.100499    546.274028
PE15  -2422.771686 -29130.466339  -4614.831815   -148.947141
PE18  -6384.749755  17485.717367 -21445.149738    958.364734
PE19 -12059.019614  12108.163023  24173.494503   1182.035507
PE21 -27162.819768   9062.970023   7477.102663   -638.053144
PE24  18834.860834   6982.502126 -21771.923984  -1192.247481
PE25  27164.440987  -8716.565901  -7915.417895     12.914083
PE26 -15907.853935   5921.357048 -24236.080017   -164.275198
PE27 -18802.475393  -6891.891226  21786.437128   -546.945107
PE29 -24699.428197  -1457.766512  16231.687171    -59.131278
PE30    411.231068 -18551.707070  23047.600303  -1098.440283
PE31   -517.332917  18558.175124 -23053.410211    -49.160388
PE33  -9618.517852  24075.751745 -14269.690350     16.439316
PE34   9381.895659 -24365.281655  13957.265495   -155.567293
PE36  15814.055110  -5337.261945  24455.544393   -334.110952
PG01  14586.997463  -8033.639639  20698.242897     17.764622
PG02  14394.253275  -5995.026629  21929.740948   -276.409716
PG03  23156.765165 -12195.010662   3985.843742    638.927772
PG04  19685.789060  -3238.601487 -17591.696484    506.410873
PG05 -20586.797094    961.160360 -16966.142837   -197.976665
PG06  -5862.722480 -24856.575530  -6988.483970    -93.012855
PG07   7406.151787 -21730.150297 -12423.013043    -13.951083
PG08  25043.549935   4711.235435   8147.070234    453.367105
PG09  11884.911628 -10872.155168 -21223.951304    514.464400
PG10   -708.462605  16859.234953  20652.009644   -261.750194
PG11 -12112.844409 -16436.794504 -16977.143542   -752.425170
PG12 -24141.994345   8720.386455   6443.783064   -562.360079
PG13 -22705.525471 -13856.690996   1981.586818    692.301252
PG14   4680.677331 -18689.653431  18226.157629    573.176819
PG15 -25172.725001  -1514.469763   8038.878023    247.436812
PG16  17772.961367   5698.322607 -19421.076435    -86.711735
PG17  -4030.058875 -17840.337824  19594.516104    490.391343
PG18  -6295.835756  23224.049703 -10957.417705   -658.993282
PG19 -14291.750050 -18933.941730  12240.522620    581.910142
PG20 -12534.725145  -8982.428392 -21528.959055    367.351657
PG21  15782.654585   2348.900278  21734.827432     99.862035
PG22  -2680.648217 -15800.920745  21606.892929    -90.348094
PG23 -14247.078645  19293.767726  11195.748745    396.806918
PG24 -15131.615178   3758.125301  21022.064610   -467.560683
PG25 -18922.003202  17799.540863  -5157.121049    497.262282
PG26   9070.045493  13179.389848 -21372.034375    -34.091141
PG27  23304.487634  13052.628650  -2498.671533    -33.498020
PG28   5942.943434  25429.438331  -4857.661364   -526.180289
PG29 -12461.179793   9748.917686 -21396.900156   -550.284857
PG30   -485.154341 -26329.428553  -1893.321399   -247.006216
PG31  10724.818601  19958.287101 -13805.309790   -218.645064
PG32   9716.597797  17957.730935  17327.252478   -547.971098
PJ02 -36189.434049  18024.782487  -7353.415416     -0.330906
PJ03 -19314.494539  29397.693925 -18464.828097     -0.128764
PJ04 -27725.719594  27791.528295  21372.759897     21.259130
PJ07 -25389.365021  33662.175813      4.364145     -0.056759
PR01  19800.037493  -5693.631345 -15032.304075    110.018729
PR02   3704.336899 -10298.141158 -22998.126684    -38.729785
PR03 -15252.185657  -9900.578604 -17808.625216    114.355886
PR04 -24940.494119  -4267.705808  -3112.839992    271.112839
PR05 -21468.139984   3645.648054  13273.612593    143.205669
PR06  -1446.099974  10813.397782  23047.152412   -195.881206
PR07  15606.228902   9885.823638  17659.760148     98.199654
PR08  25047.896571   3986.823083   2979.996614     -6.248354
PR09  -9660.320565  22068.268021  -8498.085569    230.022385
PR10    920.544945  15624.410563 -20130.814214   -266.459643
PR11  12617.882658    383.639848 -22157.169309      1.630306
PR12  17171.921986 -16442.075530  -9246.562760     49.196887
PR13  11617.914333 -21868.978725   6113.541779    -55.068850
PR14  -2379.805497 -14379.631678  20932.807550     27.551089
PR15 -13628.710920   1229.976301  21538.983785     72.528178
PR16 -17105.339008  16423.342142   9446.439119     32.178573
PR17 -11709.334476 -22401.089940  -3564.373082    154.338814
PR18 -13840.024642 -11757.010938 -17866.983388    180.143689
PR19 -10136.617944   2689.115552 -23245.801824   -304.276558
PR20   1251.250285  21045.207170 -14376.186777   -124.150945
PR21  11041.278305  22858.014279   2376.679320   -165.143940
PR22  13840.215389  10773.639319  18558.250148    -54.112975
PR23   9012.768558  -5589.071419  23197.874337   -143.086807
PR24  -2281.727700 -21285.808393  13904.514414    -86.723517
PR26  24598.960874   4660.427348   4858.250903   -132.151853
EOF
